{
    "links": {
        "self": "http://www.neowsapp.com/rest/v1/neo/3459176?api_key=iIulBulltgU6a56xZRHN4H3l9WmuAYTsLGpBGhQ2"
    },
    "id": "3459176",
    "neo_reference_id": "3459176",
    "name": "(2009 HM73)",
    "designation": "2009 HM73",
    "nasa_jpl_url": "http://ssd.jpl.nasa.gov/sbdb.cgi?sstr=3459176",
    "absolute_magnitude_h": 23.1,
    "estimated_diameter": {
        "kilometers": {
            "estimated_diameter_min": 0.063760979,
            "estimated_diameter_max": 0.1425738833
        },
        "meters": {
            "estimated_diameter_min": 63.7609789875,
            "estimated_diameter_max": 142.5738833281
        },
        "miles": {
            "estimated_diameter_min": 0.0396192233,
            "estimated_diameter_max": 0.0885912765
        },
        "feet": {
            "estimated_diameter_min": 209.1895703015,
            "estimated_diameter_max": 467.7620993781
        }
    },
    "is_potentially_hazardous_asteroid": false,
    "close_approach_data": [
        {
            "close_approach_date": "2009-05-21",
            "close_approach_date_full": "2009-May-21 11:53",
            "epoch_date_close_approach": 1242906780000,
            "relative_velocity": {
                "kilometers_per_second": "5.7022450717",
                "kilometers_per_hour": "20528.0822581312",
                "miles_per_hour": "12755.3520008927"
            },
            "miss_distance": {
                "astronomical": "0.1771460738",
                "lunar": "68.9098227082",
                "kilometers": "26500675.319342806",
                "miles": "16466756.0698144828"
            },
            "orbiting_body": "Earth"
        }
    ],
    "orbital_data": {
        "orbit_id": "12",
        "orbit_determination_date": "2017-04-06 09:00:39",
        "first_observation_date": "2009-04-28",
        "last_observation_date": "2009-05-31",
        "data_arc_in_days": 33,
        "observations_used": 40,
        "orbit_uncertainty": "7",
        "minimum_orbit_intersection": ".162944",
        "jupiter_tisserand_invariant": "3.329",
        "epoch_osculation": "2459000.5",
        "eccentricity": ".511870287163404",
        "semi_major_axis": "2.398594063526811",
        "inclination": "6.414519751329705",
        "ascending_node_longitude": "72.88210450015707",
        "orbital_period": "1356.855372491015",
        "perihelion_distance": "1.170825031440906",
        "perihelion_argument": "161.1529187033283",
        "aphelion_distance": "3.626363095612716",
        "perihelion_time": "2459041.051569405870",
        "mean_anomaly": "349.2408835296042",
        "mean_motion": ".2653193607061343",
        "equinox": "J2000",
        "orbit_class": {
            "orbit_class_type": "AMO",
            "orbit_class_description": "Near-Earth asteroid orbits similar to that of 1221 Amor",
            "orbit_class_range": "1.017 AU < q (perihelion) < 1.3 AU"
        }
    },
    "is_sentry_object": false
}